NORAD_CAT_ID,OBJECT_NAME,OBJECT_TYPE,EPOCH,MEAN_MOTION,ECCENTRICITY,INCLINATION,RA_OF_ASC_NODE,ARG_OF_PERICENTER,MEAN_ANOMALY,BSTAR,MEAN_MOTION_DOT,MEAN_MOTION_DDOT,TLE_LINE0,TLE_LINE1,TLE_LINE2,SEMIMAJOR_AXIS,PERIOD,APOGEE,PERIGEE,DECAYED
50163.0,STARLINK-3306,PAYLOAD,2023-03-26 07:23:25,15.08805746,0.0001173,53.2183,44.6506,105.1477,254.9645,1.0048e-05,-1.28e-06,0.0,0 STARLINK-3306,1 50163U 21125H   23085.30793580 -.00000128  00000-0  10048-4 0  9998,2 50163  53.2183  44.6506 0001173 105.1477 254.9645 15.08805746 73785,6917.985,95.44,540.662,539.039,0.0
50163.0,STARLINK-3306,PAYLOAD,2023-03-27 04:03:25,15.08859219,0.0001454,53.2195,40.7893,125.9758,234.1369,0.001239,0.00019496,0.0,0 STARLINK-3306,1 50163U 21125H   23086.16905037  .00019496  00000-0  12390-2 0  9992,2 50163  53.2195  40.7893 0001454 125.9758 234.1369 15.08859219 73437,6917.822,95.436,540.692,538.681,0.0
50163.0,STARLINK-3306,PAYLOAD,2023-03-27 05:38:48,15.0887401,0.0001308,53.2181,40.489,121.9457,238.1662,0.0018055,0.0002859,0.0,0 STARLINK-3306,1 50163U 21125H   23086.23528903  .00028590  00000-0  18055-2 0  9992,2 50163  53.2181  40.4890 0001308 121.9457 238.1662 15.08874010 73443,6917.776,95.435,540.546,538.737,0.0
50163.0,STARLINK-3306,PAYLOAD,2023-03-28 05:29:35,15.0887347,0.0001069,53.2174,36.0284,115.4061,244.7042,0.0025163,0.00040023,0.0,0 STARLINK-3306,1 50163U 21125H   23087.22887858  .00040023  00000-0  25163-2 0  9992,2 50163  53.2174  36.0284 0001069 115.4061 244.7042 15.08873470 73596,6917.778,95.435,540.383,538.904,0.0
50163.0,STARLINK-3306,PAYLOAD,2023-03-29 00:34:12,15.08867778,0.0001048,53.2175,32.4611,124.9355,235.1736,0.0022693,0.0003604,0.0,0 STARLINK-3306,1 50163U 21125H   23088.02375948  .00036040  00000-0  22693-2 0  9992,2 50163  53.2175  32.4611 0001048 124.9355 235.1736 15.08867778 73711,6917.795,95.436,540.385,538.935,0.0
50163.0,STARLINK-3306,PAYLOAD,2023-03-29 05:20:22,15.08853833,0.0001219,53.2169,31.5694,126.33,233.7805,0.00096218,0.00015064,0.0,0 STARLINK-3306,1 50163U 21125H   23088.22247790  .00015064  00000-0  96218-3 0  9995,2 50163  53.2169  31.5694 0001219 126.3300 233.7805 15.08853833 73742,6917.838,95.437,540.546,538.86,0.0
50163.0,STARLINK-3306,PAYLOAD,2023-03-30 05:11:08,15.08864257,0.0001774,53.2172,27.1079,108.627,251.4915,0.0013477,0.0002124,0.0,0 STARLINK-3306,1 50163U 21125H   23089.21607343  .00021240  00000-0  13477-2 0  9997,2 50163  53.2172  27.1079 0001774 108.6270 251.4915 15.08864257 73896,6917.806,95.436,540.898,538.444,0.0
50163.0,STARLINK-3306,PAYLOAD,2023-03-30 13:08:04,15.08851904,9e-05,53.2175,25.6213,102.7432,257.3661,0.00019316,2.789e-05,0.0,0 STARLINK-3306,1 50163U 21125H   23089.54727416  .00002789  00000-0  19316-3 0  9993,2 50163  53.2175  25.6213 0000900 102.7432 257.3661 15.08851904 73941,6917.844,95.437,540.332,539.086,0.0
50163.0,STARLINK-3306,PAYLOAD,2023-03-31 01:51:08,15.08886808,5.03e-05,53.2183,23.2412,106.9678,253.1369,0.0014993,0.00023685,0.0,0 STARLINK-3306,1 50163U 21125H   23090.07718274  .00023685  00000-0  14993-2 0  9998,2 50163  53.2183  23.2412 0000503 106.9678 253.1369 15.08886808 74022,6917.737,95.435,539.95,539.254,0.0
50163.0,STARLINK-3306,PAYLOAD,2023-03-31 09:47:57,15.0907606,0.0001086,53.2187,21.756,121.9213,238.1885,0.0055284,0.0008939,0.0,0 STARLINK-3306,1 50163U 21125H   23090.40829961  .00089390  00000-0  55284-2 0  9994,2 50163  53.2187  21.7560 0001086 121.9213 238.1885 15.09076060 74075,6917.159,95.423,539.775,538.273,0.0
50163.0,STARLINK-3306,PAYLOAD,2023-04-01 06:27:23,15.09525021,0.0001078,53.2172,17.8867,83.1361,276.9754,0.0078298,0.00129015,0.0,0 STARLINK-3306,1 50163U 21125H   23091.26902714  .00129015  00000-0  78298-2 0  9996,2 50163  53.2172  17.8867 0001078  83.1361 276.9754 15.09525021 74205,6915.787,95.394,538.398,536.907,0.0
50163.0,STARLINK-3306,PAYLOAD,2023-04-01 17:34:43,15.09588455,0.0003955,53.2174,15.8062,200.8621,159.221,0.0026225,0.00042574,0.0,0 STARLINK-3306,1 50163U 21125H   23091.73244396  .00042574  00000-0  26225-2 0  9990,2 50163  53.2174  15.8062 0003955 200.8621 159.2210 15.09588455 74755,6915.594,95.39,540.194,534.723,0.0
50163.0,STARLINK-3306,PAYLOAD,2023-04-02 04:42:10,15.09431724,0.0002215,53.2182,13.7244,281.033,79.0413,-0.0038537,-0.0006209,0.0,0 STARLINK-3306,1 50163U 21125H   23092.19595150 -.00062090  00000-0 -38537-2 0  9994,2 50163  53.2182  13.7244 0002215 281.0330  79.0413 15.09431724 74344,6916.072,95.4,539.469,536.405,0.0
50163.0,STARLINK-3306,PAYLOAD,2023-04-02 09:28:18,15.09235905,3.89e-05,53.2176,12.831,156.9852,203.1158,-0.008214,-0.00130058,0.0,0 STARLINK-3306,1 50163U 21125H   23092.39465986 -.00130058  00000-0 -82140-2 0  9998,2 50163  53.2176  12.8310 0000389 156.9852 203.1158 15.09235905 74372,6916.671,95.413,538.805,538.266,0.0
50163.0,STARLINK-3306,PAYLOAD,2023-04-02 20:35:58,15.08999121,7.71e-05,53.2177,10.7494,76.9016,283.2062,-0.0088688,-0.00139317,0.0,0 STARLINK-3306,1 50163U 21125H   23092.85831434 -.00139317  00000-0 -88688-2 0  9994,2 50163  53.2177  10.7494 0000771  76.9016 283.2062 15.08999121 74448,6917.394,95.427,539.792,538.726,0.0
50163.0,STARLINK-3306,PAYLOAD,2023-04-02 22:11:20,15.08991703,4.83e-05,53.2181,10.4527,98.2805,261.8242,-0.0081171,-0.00127712,0.0,0 STARLINK-3306,1 50163U 21125H   23092.92454698 -.00127712  00000-0 -81171-2 0  9991,2 50163  53.2181  10.4527 0000483  98.2805 261.8242 15.08991703 74934,6917.417,95.428,539.616,538.948,0.0
50163.0,STARLINK-3306,PAYLOAD,2023-04-03 09:19:02,15.08899255,8.21e-05,53.2178,8.3694,108.3187,251.7895,-0.004068,-0.00064552,0.0,0 STARLINK-3306,1 50163U 21125H   23093.38822875 -.00064552  00000-0 -40680-2 0  9990,2 50163  53.2178   8.3694 0000821 108.3187 251.7895 15.08899255 75003,6917.699,95.434,540.132,538.996,0.0
50163.0,STARLINK-3306,PAYLOAD,2023-04-03 18:51:22,15.08855026,0.0001062,53.2179,6.5851,119.7224,240.3874,-0.0011943,-0.00019252,0.0,0 STARLINK-3306,1 50163U 21125H   23093.78568133 -.00019252  00000-0 -11943-2 0  9995,2 50163  53.2179   6.5851 0001062 119.7224 240.3874 15.08855026 74586,6917.834,95.437,540.434,538.965,0.0
50163.0,STARLINK-3306,PAYLOAD,2023-04-04 04:23:42,15.08869692,0.0001184,53.2179,4.8009,99.8206,260.2919,0.0020975,0.00033279,0.0,0 STARLINK-3306,1 50163U 21125H   23094.18312633  .00033279  00000-0  20975-2 0  9990,2 50163  53.2179   4.8009 0001184  99.8206 260.2919 15.08869692 74647,6917.79,95.436,540.474,538.836,0.0
50163.0,STARLINK-3306,PAYLOAD,2023-04-04 21:52:56,15.08850781,0.0001256,53.2179,1.5298,120.6329,239.4787,0.0011093,0.00017416,0.0,0 STARLINK-3306,1 50163U 21125H   23094.91176788  .00017416  00000-0  11093-2 0  9996,2 50163  53.2179   1.5298 0001256 120.6329 239.4787 15.08850781 75236,6917.847,95.437,540.581,538.844,0.0
50163.0,STARLINK-3306,PAYLOAD,2023-04-05 06:00:00,15.08807937,0.0001328,53.2172,0.0123,76.9523,321.4366,0.0017693,0.00027958,0.0,0 STARLINK-3306,1 50163U 21125H   23095.25001157  .00027958  00000-0  17693-2 0  9995,2 50163  53.2172   0.0123 0001328  76.9523 321.4366 15.08807937 74812,6917.978,95.44,540.762,538.925,0.0
50163.0,STARLINK-3306,PAYLOAD,2023-04-05 14:00:01,15.08802685,0.0001283,53.2172,358.5144,89.6203,320.3495,0.0043381,0.00069362,0.0,0 STARLINK-3306,1 50163U 21125H   23095.58334491  .00069362  00000-0  43381-2 0  9999,2 50163  53.2172 358.5144 0001283  89.6203 320.3495 15.08802685  1302,6917.994,95.44,540.747,538.972,0.0
50163.0,STARLINK-3306,PAYLOAD,2023-04-05 22:00:00,15.08879854,0.000134,53.2172,357.0194,87.9589,333.5845,-0.004194,-0.00066491,0.0,0 STARLINK-3306,1 50163U 21125H   23095.91667824 -.00066491  00000-0 -41940-2 0  9996,2 50163  53.2172 357.0194 0001340  87.9589 333.5845 15.08879854  1300,6917.759,95.435,540.551,538.697,0.0
50163.0,STARLINK-3306,PAYLOAD,2023-04-06 02:29:53,15.08852412,0.0001249,53.2175,356.1772,92.3116,267.802,0.00096695,0.0001514,0.0,0 STARLINK-3306,1 50163U 21125H   23096.10409187  .00015140  00000-0  96695-3 0  9995,2 50163  53.2175 356.1772 0001249  92.3116 267.8020 15.08852412 75417,6917.842,95.437,540.571,538.843,0.0
50163.0,STARLINK-3306,PAYLOAD,2023-04-06 23:09:54,15.08851233,0.0001663,53.2174,352.3141,73.6832,286.4343,0.00053295,8.207e-05,0.0,0 STARLINK-3306,1 50163U 21125H   23096.96521240  .00008207  00000-0  53295-3 0  9999,2 50163  53.2174 352.3141 0001663  73.6832 286.4343 15.08851233 75067,6917.846,95.437,540.861,538.561,0.0
50163.0,STARLINK-3306,PAYLOAD,2023-04-07 02:20:40,15.08852239,0.0001379,53.2173,351.7168,90.2494,269.8656,0.00051825,7.972e-05,0.0,0 STARLINK-3306,1 50163U 21125H   23097.09769074  .00007972  00000-0  51825-3 0  9998,2 50163  53.2173 351.7168 0001379  90.2494 269.8656 15.08852239 75565,6917.843,95.437,540.662,538.754,0.0
50163.0,STARLINK-3306,PAYLOAD,2023-04-08 02:11:27,15.08844298,0.0001423,53.2174,347.2557,88.3708,271.7447,0.00022102,3.232e-05,0.0,0 STARLINK-3306,1 50163U 21125H   23098.09129391  .00003232  00000-0  22102-3 0  9992,2 50163  53.2174 347.2557 0001423  88.3708 271.7447 15.08844298 75234,6917.867,95.437,540.717,538.748,0.0
50163.0,STARLINK-3306,PAYLOAD,2023-04-09 02:02:14,15.08847361,0.0001296,53.2176,342.7946,92.5555,267.5585,0.00031914,4.796e-05,0.0,0 STARLINK-3306,1 50163U 21125H   23099.08489166  .00004796  00000-0  31914-3 0  9998,2 50163  53.2176 342.7946 0001296  92.5555 267.5585 15.08847361 75862,6917.858,95.437,540.619,538.826,0.0
50163.0,STARLINK-3306,PAYLOAD,2023-04-09 16:20:43,15.08839948,0.0001325,53.2177,340.119,88.8994,271.215,2.365e-05,8.9e-07,0.0,0 STARLINK-3306,1 50163U 21125H   23099.68105564  .00000089  00000-0  23650-4 0  9991,2 50163  53.2177 340.1190 0001325  88.8994 271.2150 15.08839948 75956,6917.881,95.438,540.662,538.829,0.0
50163.0,STARLINK-3306,PAYLOAD,2023-04-09 22:42:15,15.08846375,0.0001514,53.2182,338.9297,95.3381,264.7784,0.00016339,2.314e-05,0.0,0 STARLINK-3306,1 50163U 21125H   23099.94601264  .00002314  00000-0  16339-3 0  9996,2 50163  53.2182 338.9297 0001514  95.3381 264.7784 15.08846375 75512,6917.861,95.437,540.773,538.679,0.0
